{
    "links": {
        "self": "http://www.neowsapp.com/rest/v1/neo/3756919?api_key=iIulBulltgU6a56xZRHN4H3l9WmuAYTsLGpBGhQ2"
    },
    "id": "3756919",
    "neo_reference_id": "3756919",
    "name": "(2016 PH1)",
    "designation": "2016 PH1",
    "nasa_jpl_url": "http://ssd.jpl.nasa.gov/sbdb.cgi?sstr=3756919",
    "absolute_magnitude_h": 24.4,
    "estimated_diameter": {
        "kilometers": {
            "estimated_diameter_min": 0.0350392641,
            "estimated_diameter_max": 0.0783501764
        },
        "meters": {
            "estimated_diameter_min": 35.0392641108,
            "estimated_diameter_max": 78.3501764334
        },
        "miles": {
            "estimated_diameter_min": 0.0217723826,
            "estimated_diameter_max": 0.0486845275
        },
        "feet": {
            "estimated_diameter_min": 114.9582192654,
            "estimated_diameter_max": 257.0543928497
        }
    },
    "is_potentially_hazardous_asteroid": false,
    "close_approach_data": [
        {
            "close_approach_date": "2016-07-30",
            "close_approach_date_full": "2016-Jul-30 22:54",
            "epoch_date_close_approach": 1469919240000,
            "relative_velocity": {
                "kilometers_per_second": "5.0082207348",
                "kilometers_per_hour": "18029.5946452901",
                "miles_per_hour": "11202.8889616804"
            },
            "miss_distance": {
                "astronomical": "0.1724321735",
                "lunar": "67.0761154915",
                "kilometers": "25795485.875070445",
                "miles": "16028571.668024341"
            },
            "orbiting_body": "Earth"
        }
    ],
    "orbital_data": {
        "orbit_id": "8",
        "orbit_determination_date": "2017-04-06 08:24:43",
        "first_observation_date": "2016-08-03",
        "last_observation_date": "2016-09-03",
        "data_arc_in_days": 31,
        "observations_used": 31,
        "orbit_uncertainty": "7",
        "minimum_orbit_intersection": ".167714",
        "jupiter_tisserand_invariant": "3.570",
        "epoch_osculation": "2459000.5",
        "eccentricity": ".4480622391289661",
        "semi_major_axis": "2.141923772994518",
        "inclination": "6.200162856738889",
        "ascending_node_longitude": "308.0730912256472",
        "orbital_period": "1144.997249581449",
        "perihelion_distance": "1.182208611223031",
        "perihelion_argument": "1.737014094853065",
        "aphelion_distance": "3.101638934766006",
        "perihelion_time": "2458744.771724006473",
        "mean_anomaly": "80.40384323309316",
        "mean_motion": ".3144112356004324",
        "equinox": "J2000",
        "orbit_class": {
            "orbit_class_type": "AMO",
            "orbit_class_description": "Near-Earth asteroid orbits similar to that of 1221 Amor",
            "orbit_class_range": "1.017 AU < q (perihelion) < 1.3 AU"
        }
    },
    "is_sentry_object": false
}